GLOBALSTAR M068         
1 32266U 07048D   25353.27030794 -.00000100  00000+0  24547-4 0  9995
2 32266  51.9884  98.0539 0001612 154.6348 223.2775 12.62835554840945
GLOBALSTAR M079         
1 37188U 10054A   25352.82524354 -.00000090  00000+0  76539-4 0  9990
2 37188  52.0057 297.7193 0000694  28.4399 352.9561 12.62269343699777
GLOBALSTAR M074         
1 37189U 10054B   25353.16675942 -.00000097  00000+0  35397-4 0  9993
2 37189  52.0031 295.9737 0000761  56.2862 317.3559 12.62264132700421
GLOBALSTAR M076         
1 37190U 10054C   25353.30582794 -.00000094  00000+0  54388-4 0  9991
2 37190  52.0043 295.7393 0000855  45.7517 119.0864 12.62268213700156
GLOBALSTAR M077         
1 37191U 10054D   25353.15783146 -.00000090  00000+0 -22185-3 0  9995
2 37191  51.9983 276.5900 0001228  33.4453 105.4834 11.68176507700107
GLOBALSTAR M075         
1 37192U 10054E   25351.73634080 -.00000091  00000+0  72174-4 0  9994
2 37192  51.9972 342.6695 0000324  70.0279 101.0008 12.62270606699024
GLOBALSTAR M073         
1 37193U 10054F   25353.15779612 -.00000062  00000+0  23231-3 0  9991
2 37193  52.0056 252.3061 0000966  51.8322  99.4110 12.62268112701197
GLOBALSTAR M083         
1 37739U 11033A   25353.01118199 -.00000071  00000+0  18044-3 0  9993
2 37739  51.9835 201.2266 0000984  70.9600  75.6857 12.62265837670197
GLOBALSTAR M088         
1 37740U 11033B   25353.27254745 -.00000126  00000+0 -12191-3 0  9990
2 37740  52.0211 106.4202 0000904 119.6103 254.6190 12.62271007665779
GLOBALSTAR M091         
1 37741U 11033C   25352.68399147 -.00000091  00000+0  73821-4 0  9999
2 37741  52.0006  71.4450 0000592 135.5764  22.0681 12.62268302666486
GLOBALSTAR M085         
1 37742U 11033D   25353.11224205 -.00000095  00000+0  47578-4 0  9995
2 37742  52.0145  21.2756 0000138 159.5095 205.8191 12.62267368667054
GLOBALSTAR M081         
1 37743U 11033E   25351.59018587 -.00000087  00000+0  92331-4 0  9998
2 37743  51.9980  28.5496 0000222  94.7932  71.3857 12.62270971667009
GLOBALSTAR M089         
1 37744U 11033F   25353.25898450 -.00000092  00000+0  65428-4 0  9992
2 37744  51.9954 337.6624 0000624  70.8838 302.6694 12.62262469668063
GLOBALSTAR M084         
1 38040U 11080A   25353.30710549 -.00000078  00000+0  14300-3 0  9998
2 38040  51.9983 204.9031 0001350  79.4554  91.8850 12.62266727646046
GLOBALSTAR M080         
1 38041U 11080B   25353.03671237 -.00000066  00000+0  20936-3 0  9998
2 38041  52.0033 207.3821 0000719 100.4737  51.4945 12.62265021646138
GLOBALSTAR M082         
1 38042U 11080C   25352.89691368 -.00000098  00000+0  30442-4 0  9998
2 38042  52.0050 163.2884 0000834 108.8430  57.2075 12.62266389646829
GLOBALSTAR M092         
1 38043U 11080D   25353.18698867 -.00000076  00000+0  15592-3 0  9997
2 38043  52.0079 252.7939 0000859  66.4657  97.9974 12.62268464645311
GLOBALSTAR M090         
1 38044U 11080E   25352.67063344 -.00000110  00000+0 -34277-4 0  9999
2 38044  52.0096 157.8751 0000940  91.2297   4.9669 12.62265499646916
GLOBALSTAR M086         
1 38045U 11080F   25353.18636036 -.00000097  00000+0  37019-4 0  9991
2 38045  51.9875 156.5284 0001461  48.2551 122.6592 12.62281367646927
GLOBALSTAR M097         
1 39072U 13005A   25353.17695861 -.00000115  00000+0 -61946-4 0  9999
2 39072  52.0060  71.3017 0000491 111.5674 248.5245 12.62267687594177
GLOBALSTAR M093         
1 39073U 13005B   25353.15085737 -.00000103  00000+0  41657-5 0  9997
2 39073  52.0116  64.6606 0000222 106.4207 253.6685 12.62271105594126
GLOBALSTAR M094         
1 39074U 13005C   25353.15073020 -.00000106  00000+0 -15101-4 0  9998
2 39074  51.9980 338.9578 0000329  19.0507 341.0372 12.62265388595738
GLOBALSTAR M096         
1 39075U 13005D   25353.24295531 -.00000095  00000+0  49090-4 0  9992
2 39075  52.0090  27.3343 0000106 136.3556 223.7319 12.62269445594668
GLOBALSTAR M078         
1 39076U 13005E   25352.58348222 -.00000122  00000+0 -10432-3 0  9994
2 39076  51.9867 113.6028 0000857 175.5904 184.4971 12.62272493593206
GLOBALSTAR M095         
1 39077U 13005F   25352.68892667 -.00000126  00000+0 -12511-3 0  9997
2 39077  52.0073 110.6290 0000518 135.1198 224.9711 12.62267247593075
GLOBALSTAR M087         
1 52888U 22064A   25352.86034889 -.00000068  00000+0  19866-3 0  9995
2 52888  51.9991 251.4501 0000734  51.5443 308.5489 12.62261591168367
